{
  "type": "FeatureCollection",
  "features": [
    {
      "type": "Feature",
      "properties": {
        "norad_id": 35217,
        "name": "FENGYUN 1C DEB",
        "group": "fengyun-1c-debris",
        "lat": 78.09940857960198,
        "lon": 169.2109297776092,
        "alt_km": 1212.2739426943854,
        "timestamp": "2025-12-07T20:38:14.351217+00:00",
        "meta_object_name": "FENGYUN 1C DEB",
        "meta_object_id": "1999-025DPZ",
        "meta_epoch": "2025-12-05T23:58:33.115296",
        "meta_mean_motion": 13.5745023,
        "meta_eccentricity": 0.03033776,
        "meta_inclination": 101.8756,
        "meta_ra_of_asc_node": 253.7635,
        "meta_arg_of_pericenter": 311.644,
        "meta_mean_anomaly": 45.907,
        "meta_ephemeris_type": 0,
        "meta_classification_type": "U",
        "meta_norad_cat_id": 35217,
        "meta_element_set_no": 999,
        "meta_rev_at_epoch": 61128,
        "meta_bstar": 0.0051438041,
        "meta_mean_motion_dot": 4.909e-05,
        "meta_mean_motion_ddot": 0,
        "tle_line1": "1 35217U 99025DPZ 25339.99899439  .00004909  00000+0  51438-2 0  9999",
        "tle_line2": "2 35217 101.8756 253.7635 0303377 311.6440  45.9070 13.57450230611284"
      },
      "geometry": {
        "type": "Point",
        "coordinates": [
          169.2109297776092,
          78.09940857960198
        ]
      }
    },
    {
      "type": "Feature",
      "properties": {
        "norad_id": 35220,
        "name": "FENGYUN 1C DEB",
        "group": "fengyun-1c-debris",
        "lat": -24.784065804611803,
        "lon": -132.43583582554234,
        "alt_km": 836.5967825707821,
        "timestamp": "2025-12-07T20:38:14.351226+00:00",
        "meta_object_name": "FENGYUN 1C DEB",
        "meta_object_id": "1999-025DQC",
        "meta_epoch": "2025-12-03T04:15:21.001824",
        "meta_mean_motion": 14.22451281,
        "meta_eccentricity": 0.0043073,
        "meta_inclination": 99.0282,
        "meta_ra_of_asc_node": 46.9795,
        "meta_arg_of_pericenter": 335.8269,
        "meta_mean_anomaly": 24.0886,
        "meta_ephemeris_type": 0,
        "meta_classification_type": "U",
        "meta_norad_cat_id": 35220,
        "meta_element_set_no": 999,
        "meta_rev_at_epoch": 63047,
        "meta_bstar": 0.0020517631,
        "meta_mean_motion_dot": 4.572e-05,
        "meta_mean_motion_ddot": 0,
        "tle_line1": "1 35220U 99025DQC 25337.17732641  .00004572  00000+0  20518-2 0  9993",
        "tle_line2": "2 35220  99.0282  46.9795 0043073 335.8269  24.0886 14.22451281630475"
      },
      "geometry": {
        "type": "Point",
        "coordinates": [
          -132.43583582554234,
          -24.784065804611803
        ]
      }
    },
    {
      "type": "Feature",
      "properties": {
        "norad_id": 35223,
        "name": "FENGYUN 1C DEB",
        "group": "fengyun-1c-debris",
        "lat": 67.49127033817221,
        "lon": -58.70578656346746,
        "alt_km": 589.3532951752741,
        "timestamp": "2025-12-07T20:38:14.351236+00:00",
        "meta_object_name": "FENGYUN 1C DEB",
        "meta_object_id": "1999-025DQF",
        "meta_epoch": "2025-12-05T16:43:00.793344",
        "meta_mean_motion": 14.88764155,
        "meta_eccentricity": 0.01293084,
        "meta_inclination": 98.9708,
        "meta_ra_of_asc_node": 321.2541,
        "meta_arg_of_pericenter": 349.0353,
        "meta_mean_anomaly": 10.8048,
        "meta_ephemeris_type": 0,
        "meta_classification_type": "U",
        "meta_norad_cat_id": 35223,
        "meta_element_set_no": 999,
        "meta_rev_at_epoch": 93777,
        "meta_bstar": 0.0016723631,
        "meta_mean_motion_dot": 0.00018249,
        "meta_mean_motion_ddot": 0,
        "tle_line1": "1 35223U 99025DQF 25339.69653696  .00018249  00000+0  16724-2 0  9997",
        "tle_line2": "2 35223  98.9708 321.2541 0129308 349.0353  10.8048 14.88764155937779"
      },
      "geometry": {
        "type": "Point",
        "coordinates": [
          -58.70578656346746,
          67.49127033817221
        ]
      }
    },
    {
      "type": "Feature",
      "properties": {
        "norad_id": 35229,
        "name": "FENGYUN 1C DEB",
        "group": "fengyun-1c-debris",
        "lat": -41.43050673393809,
        "lon": 68.29841551344168,
        "alt_km": 699.1462090544655,
        "timestamp": "2025-12-07T20:38:14.351249+00:00",
        "meta_object_name": "FENGYUN 1C DEB",
        "meta_object_id": "1999-025DQM",
        "meta_epoch": "2025-12-02T10:53:02.570208",
        "meta_mean_motion": 14.59759705,
        "meta_eccentricity": 0.0047395,
        "meta_inclination": 98.4598,
        "meta_ra_of_asc_node": 55.2366,
        "meta_arg_of_pericenter": 244.9664,
        "meta_mean_anomaly": 114.661,
        "meta_ephemeris_type": 0,
        "meta_classification_type": "U",
        "meta_norad_cat_id": 35229,
        "meta_element_set_no": 999,
        "meta_rev_at_epoch": 64356,
        "meta_bstar": 0.0066057982,
        "meta_mean_motion_dot": 0.00032123,
        "meta_mean_motion_ddot": 0,
        "tle_line1": "1 35229U 99025DQM 25336.45350197  .00032123  00000+0  66058-2 0  9996",
        "tle_line2": "2 35229  98.4598  55.2366 0047395 244.9664 114.6610 14.59759705643561"
      },
      "geometry": {
        "type": "Point",
        "coordinates": [
          68.29841551344168,
          -41.43050673393809
        ]
      }
    },
    {
      "type": "Feature",
      "properties": {
        "norad_id": 35231,
        "name": "FENGYUN 1C DEB",
        "group": "fengyun-1c-debris",
        "lat": 12.373529658522429,
        "lon": 23.208367230314682,
        "alt_km": 843.0418752392115,
        "timestamp": "2025-12-07T20:38:14.351259+00:00",
        "meta_object_name": "FENGYUN 1C DEB",
        "meta_object_id": "1999-025DQP",
        "meta_epoch": "2025-12-06T20:48:41.169024",
        "meta_mean_motion": 14.14527492,
        "meta_eccentricity": 0.00380194,
        "meta_inclination": 98.7213,
        "meta_ra_of_asc_node": 24.1687,
        "meta_arg_of_pericenter": 101.4188,
        "meta_mean_anomaly": 259.126,
        "meta_ephemeris_type": 0,
        "meta_classification_type": "U",
        "meta_norad_cat_id": 35231,
        "meta_element_set_no": 999,
        "meta_rev_at_epoch": 91419,
        "meta_bstar": 5.1836009e-05,
        "meta_mean_motion_dot": 5.7e-07,
        "meta_mean_motion_ddot": 0,
        "tle_line1": "1 35231U 99025DQP 25340.86714316  .00000057  00000+0  51836-4 0  9997",
        "tle_line2": "2 35231  98.7213  24.1687 0038019 101.4188 259.1260 14.14527492914196"
      },
      "geometry": {
        "type": "Point",
        "coordinates": [
          23.208367230314682,
          12.373529658522429
        ]
      }
    },
    {
      "type": "Feature",
      "properties": {
        "norad_id": 35233,
        "name": "FENGYUN 1C DEB",
        "group": "fengyun-1c-debris",
        "lat": -30.29591816218555,
        "lon": 86.0298760446165,
        "alt_km": 741.2991966693908,
        "timestamp": "2025-12-07T20:38:14.351268+00:00",
        "meta_object_name": "FENGYUN 1C DEB",
        "meta_object_id": "1999-025DQR",
        "meta_epoch": "2025-11-29T12:57:02.668608",
        "meta_mean_motion": 14.41620526,
        "meta_eccentricity": 0.00411297,
        "meta_inclination": 98.7712,
        "meta_ra_of_asc_node": 72.3131,
        "meta_arg_of_pericenter": 300.6155,
        "meta_mean_anomaly": 71.0123,
        "meta_ephemeris_type": 0,
        "meta_classification_type": "U",
        "meta_norad_cat_id": 35233,
        "meta_element_set_no": 999,
        "meta_rev_at_epoch": 90986,
        "meta_bstar": 0.0016467683,
        "meta_mean_motion_dot": 5.371e-05,
        "meta_mean_motion_ddot": 0,
        "tle_line1": "1 35233U 99025DQR 25333.53961422  .00005371  00000+0  16468-2 0  9991",
        "tle_line2": "2 35233  98.7712  72.3131 0041129 300.6155  71.0123 14.41620526909863"
      },
      "geometry": {
        "type": "Point",
        "coordinates": [
          86.0298760446165,
          -30.29591816218555
        ]
      }
    },
    {
      "type": "Feature",
      "properties": {
        "norad_id": 35234,
        "name": "FENGYUN 1C DEB",
        "group": "fengyun-1c-debris",
        "lat": 38.53923664118602,
        "lon": 3.3972748736450895,
        "alt_km": 708.2219072127109,
        "timestamp": "2025-12-07T20:38:14.351288+00:00",
        "meta_object_name": "FENGYUN 1C DEB",
        "meta_object_id": "1999-025DQS",
        "meta_epoch": "2025-12-06T08:24:33.349536",
        "meta_mean_motion": 14.65495399,
        "meta_eccentricity": 0.00997141,
        "meta_inclination": 98.0683,
        "meta_ra_of_asc_node": 8.403,
        "meta_arg_of_pericenter": 282.8813,
        "meta_mean_anomaly": 76.1266,
        "meta_ephemeris_type": 0,
        "meta_classification_type": "U",
        "meta_norad_cat_id": 35234,
        "meta_element_set_no": 999,
        "meta_rev_at_epoch": 94262,
        "meta_bstar": 0.0010918382,
        "meta_mean_motion_dot": 6.316e-05,
        "meta_mean_motion_ddot": 0,
        "tle_line1": "1 35234U 99025DQS 25340.35038599  .00006316  00000+0  10918-2 0  9994",
        "tle_line2": "2 35234  98.0683   8.4030 0099714 282.8813  76.1266 14.65495399942626"
      },
      "geometry": {
        "type": "Point",
        "coordinates": [
          3.3972748736450895,
          38.53923664118602
        ]
      }
    }
  ]
}